[{"OBJECT_NAME":"STARLINK-36952","OBJECT_ID":"2026-041Y","EPOCH":"2026-03-26T21:10:08.709600","MEAN_MOTION":15.75289052,"ECCENTRICITY":8.67e-5,"INCLINATION":53.1605,"RA_OF_ASC_NODE":336.2711,"ARG_OF_PERICENTER":74.3626,"MEAN_ANOMALY":285.749,"EPHEMERIS_TYPE":0,"CLASSIFICATION_TYPE":"U","NORAD_CAT_ID":68062,"ELEMENT_SET_NO":999,"REV_AT_EPOCH":393,"BSTAR":0.0022839,"MEAN_MOTION_DOT":0.00365829,"MEAN_MOTION_DDOT":0},{"OBJECT_NAME":"STARLINK-37000","OBJECT_ID":"2026-041Z","EPOCH":"2026-03-26T20:00:03.000384","MEAN_MOTION":15.75233535,"ECCENTRICITY":0.0001009,"INCLINATION":53.1584,"RA_OF_ASC_NODE":336.3062,"ARG_OF_PERICENTER":119.5251,"MEAN_ANOMALY":65.5313,"EPHEMERIS_TYPE":0,"CLASSIFICATION_TYPE":"U","NORAD_CAT_ID":68063,"ELEMENT_SET_NO":999,"REV_AT_EPOCH":513,"BSTAR":9.3947e-5,"MEAN_MOTION_DOT":0.00013781,"MEAN_MOTION_DDOT":0},{"OBJECT_NAME":"STARLINK-36996","OBJECT_ID":"2026-041AA","EPOCH":"2026-03-26T20:00:03.000384","MEAN_MOTION":15.75234289,"ECCENTRICITY":0.0001124,"INCLINATION":53.1593,"RA_OF_ASC_NODE":336.0417,"ARG_OF_PERICENTER":112.1651,"MEAN_ANOMALY":201.6712,"EPHEMERIS_TYPE":0,"CLASSIFICATION_TYPE":"U","NORAD_CAT_ID":68064,"ELEMENT_SET_NO":999,"REV_AT_EPOCH":513,"BSTAR":-3.8723e-5,"MEAN_MOTION_DOT":-6.569e-5,"MEAN_MOTION_DDOT":0},{"OBJECT_NAME":"STARLINK-36836","OBJECT_ID":"2026-041AB","EPOCH":"2026-03-25T04:39:00.358560","MEAN_MOTION":15.81001064,"ECCENTRICITY":0.00013014,"INCLINATION":53.1589,"RA_OF_ASC_NODE":344.2116,"ARG_OF_PERICENTER":42.0148,"MEAN_ANOMALY":318.0975,"EPHEMERIS_TYPE":0,"CLASSIFICATION_TYPE":"U","NORAD_CAT_ID":68065,"ELEMENT_SET_NO":999,"REV_AT_EPOCH":367,"BSTAR":0.0019041787,"MEAN_MOTION_DOT":0.00395165,"MEAN_MOTION_DDOT":0},{"OBJECT_NAME":"STARLINK-36976","OBJECT_ID":"2026-041AC","EPOCH":"2026-03-26T20:57:32.603328","MEAN_MOTION":15.75368345,"ECCENTRICITY":8.7e-5,"INCLINATION":53.1589,"RA_OF_ASC_NODE":336.2112,"ARG_OF_PERICENTER":168.189,"MEAN_ANOMALY":191.9151,"EPHEMERIS_TYPE":0,"CLASSIFICATION_TYPE":"U","NORAD_CAT_ID":68066,"ELEMENT_SET_NO":999,"REV_AT_EPOCH":393,"BSTAR":0.0021955,"MEAN_MOTION_DOT":0.00352299,"MEAN_MOTION_DDOT":0},{"OBJECT_NAME":"STARLINK-36929","OBJECT_ID":"2026-041AD","EPOCH":"2026-03-26T21:03:36.431136","MEAN_MOTION":15.75348192,"ECCENTRICITY":8.86e-5,"INCLINATION":53.1592,"RA_OF_ASC_NODE":336.2394,"ARG_OF_PERICENTER":129.7252,"MEAN_ANOMALY":230.3846,"EPHEMERIS_TYPE":0,"CLASSIFICATION_TYPE":"U","NORAD_CAT_ID":68067,"ELEMENT_SET_NO":999,"REV_AT_EPOCH":393,"BSTAR":0.0017418,"MEAN_MOTION_DOT":0.00276583,"MEAN_MOTION_DDOT":0},{"OBJECT_NAME":"STARLINK-36766","OBJECT_ID":"2026-042A","EPOCH":"2026-03-26T13:49:11.813952","MEAN_MOTION":15.80941796,"ECCENTRICITY":0.0001769,"INCLINATION":53.1583,"RA_OF_ASC_NODE":110.1514,"ARG_OF_PERICENTER":86.613,"MEAN_ANOMALY":273.5095,"EPHEMERIS_TYPE":0,"CLASSIFICATION_TYPE":"U","NORAD_CAT_ID":68069,"ELEMENT_SET_NO":999,"REV_AT_EPOCH":475,"BSTAR":0.0020473,"MEAN_MOTION_DOT":0.00425253,"MEAN_MOTION_DDOT":0},{"OBJECT_NAME":"STARLINK-36823","OBJECT_ID":"2026-042B","EPOCH":"2026-03-26T13:48:06.573312","MEAN_MOTION":15.80931413,"ECCENTRICITY":0.0001555,"INCLINATION":53.1581,"RA_OF_ASC_NODE":110.1458,"ARG_OF_PERICENTER":129.2949,"MEAN_ANOMALY":230.8212,"EPHEMERIS_TYPE":0,"CLASSIFICATION_TYPE":"U","NORAD_CAT_ID":68070,"ELEMENT_SET_NO":999,"REV_AT_EPOCH":475,"BSTAR":0.0010814,"MEAN_MOTION_DOT":0.00218812,"MEAN_MOTION_DDOT":0},{"OBJECT_NAME":"STARLINK-36970","OBJECT_ID":"2026-042C","EPOCH":"2026-03-26T20:00:03.000384","MEAN_MOTION":15.75194468,"ECCENTRICITY":9.13e-5,"INCLINATION":53.1596,"RA_OF_ASC_NODE":108.902,"ARG_OF_PERICENTER":113.8792,"MEAN_ANOMALY":251.6187,"EPHEMERIS_TYPE":0,"CLASSIFICATION_TYPE":"U","NORAD_CAT_ID":68071,"ELEMENT_SET_NO":999,"REV_AT_EPOCH":480,"BSTAR":0.00041533,"MEAN_MOTION_DOT":0.0006338,"MEAN_MOTION_DDOT":0},{"OBJECT_NAME":"STARLINK-36972","OBJECT_ID":"2026-042D","EPOCH":"2026-03-26T12:15:59.738976","MEAN_MOTION":15.8091042,"ECCENTRICITY":0.0001272,"INCLINATION":53.1578,"RA_OF_ASC_NODE":110.458,"ARG_OF_PERICENTER":114.6421,"MEAN_ANOMALY":245.4734,"EPHEMERIS_TYPE":0,"CLASSIFICATION_TYPE":"U","NORAD_CAT_ID":68072,"ELEMENT_SET_NO":999,"REV_AT_EPOCH":474,"BSTAR":0.00095745,"MEAN_MOTION_DOT":0.00192883,"MEAN_MOTION_DDOT":0},{"OBJECT_NAME":"STARLINK-37074","OBJECT_ID":"2026-042E","EPOCH":"2026-03-26T10:42:47.618208","MEAN_MOTION":15.80907804,"ECCENTRICITY":0.0001392,"INCLINATION":53.1577,"RA_OF_ASC_NODE":110.765,"ARG_OF_PERICENTER":169.1847,"MEAN_ANOMALY":190.9206,"EPHEMERIS_TYPE":0,"CLASSIFICATION_TYPE":"U","NORAD_CAT_ID":68073,"ELEMENT_SET_NO":999,"REV_AT_EPOCH":473,"BSTAR":0.00067862,"MEAN_MOTION_DOT":0.00135578,"MEAN_MOTION_DDOT":0},{"OBJECT_NAME":"STARLINK-37045","OBJECT_ID":"2026-042F","EPOCH":"2026-03-26T16:00:00.999936","MEAN_MOTION":15.75220787,"ECCENTRICITY":0.0001101,"INCLINATION":53.1592,"RA_OF_ASC_NODE":109.8903,"ARG_OF_PERICENTER":83.1931,"MEAN_ANOMALY":339.2027,"EPHEMERIS_TYPE":0,"CLASSIFICATION_TYPE":"U","NORAD_CAT_ID":68074,"ELEMENT_SET_NO":999,"REV_AT_EPOCH":478,"BSTAR":0.00029849,"MEAN_MOTION_DOT":0.00045324,"MEAN_MOTION_DDOT":0},{"OBJECT_NAME":"STARLINK-37026","OBJECT_ID":"2026-042G","EPOCH":"2026-03-26T11:23:40.096032","MEAN_MOTION":15.75303366,"ECCENTRICITY":0.000144,"INCLINATION":53.1573,"RA_OF_ASC_NODE":110.9521,"ARG_OF_PERICENTER":90.9098,"MEAN_ANOMALY":269.2087,"EPHEMERIS_TYPE":0,"CLASSIFICATION_TYPE":"U","NORAD_CAT_ID":68075,"ELEMENT_SET_NO":999,"REV_AT_EPOCH":473,"BSTAR":0.00087409,"MEAN_MOTION_DOT":0.00135903,"MEAN_MOTION_DDOT":0},{"OBJECT_NAME":"STARLINK-37023","OBJECT_ID":"2026-042H","EPOCH":"2026-03-26T12:47:32.725824","MEAN_MOTION":15.75282714,"ECCENTRICITY":0.0001196,"INCLINATION":53.1579,"RA_OF_ASC_NODE":110.6014,"ARG_OF_PERICENTER":102.1038,"MEAN_ANOMALY":258.0116,"EPHEMERIS_TYPE":0,"CLASSIFICATION_TYPE":"U","NORAD_CAT_ID":68076,"ELEMENT_SET_NO":999,"REV_AT_EPOCH":474,"BSTAR":0.001117,"MEAN_MOTION_DOT":0.00174495,"MEAN_MOTION_DDOT":0},{"OBJECT_NAME":"STARLINK-37036","OBJECT_ID":"2026-042J","EPOCH":"2026-03-26T12:48:01.192896","MEAN_MOTION":15.75283745,"ECCENTRICITY":9.53e-5,"INCLINATION":53.1576,"RA_OF_ASC_NODE":110.6037,"ARG_OF_PERICENTER":81.4325,"MEAN_ANOMALY":278.6803,"EPHEMERIS_TYPE":0,"CLASSIFICATION_TYPE":"U","NORAD_CAT_ID":68077,"ELEMENT_SET_NO":999,"REV_AT_EPOCH":474,"BSTAR":0.0011471,"MEAN_MOTION_DOT":0.00179318,"MEAN_MOTION_DDOT":0},{"OBJECT_NAME":"STARLINK-36973","OBJECT_ID":"2026-042K","EPOCH":"2026-03-26T20:00:03.000384","MEAN_MOTION":15.75209112,"ECCENTRICITY":0.0001177,"INCLINATION":53.1589,"RA_OF_ASC_NODE":108.796,"ARG_OF_PERICENTER":90.2091,"MEAN_ANOMALY":326.7911,"EPHEMERIS_TYPE":0,"CLASSIFICATION_TYPE":"U","NORAD_CAT_ID":68078,"ELEMENT_SET_NO":999,"REV_AT_EPOCH":480,"BSTAR":0.00025199,"MEAN_MOTION_DOT":0.00038111,"MEAN_MOTION_DDOT":0}]
